CCSDS_OMM_VERS = 2.0
CREATION_DATE  = 
ORIGINATOR     = 

OBJECT_NAME    = HTV-X1
OBJECT_ID      = 2025-241A
CENTER_NAME    = EARTH
REF_FRAME      = TEME
TIME_SYSTEM    = UTC
MEAN_ELEMENT_THEORY = SGP/SGP4

EPOCH          = 2026-03-30T04:36:32.172192
MEAN_MOTION    = 15.32482714
ECCENTRICITY   = .00072372
INCLINATION    = 51.6383
RA_OF_ASC_NODE = 334.2620
ARG_OF_PERICENTER = 252.1007
MEAN_ANOMALY   = 107.9185

EPHEMERIS_TYPE = 0
CLASSIFICATION_TYPE = U
NORAD_CAT_ID   = 66174
ELEMENT_SET_NO = 999
REV_AT_EPOCH   = 2408
BSTAR          = .10143932E-3
MEAN_MOTION_DOT = .286E-4
MEAN_MOTION_DDOT = 0

CCSDS_OMM_VERS = 2.0
CREATION_DATE  = 
ORIGINATOR     = 

OBJECT_NAME    = SZ-21 MODULE
OBJECT_ID      = 2025-246C
CENTER_NAME    = EARTH
REF_FRAME      = TEME
TIME_SYSTEM    = UTC
MEAN_ELEMENT_THEORY = SGP/SGP4

EPOCH          = 2026-03-30T07:26:18.451392
MEAN_MOTION    = 15.70166693
ECCENTRICITY   = .00020203
INCLINATION    = 41.4738
RA_OF_ASC_NODE = 76.2734
ARG_OF_PERICENTER = 214.1142
MEAN_ANOMALY   = 145.9571

EPHEMERIS_TYPE = 0
CLASSIFICATION_TYPE = U
NORAD_CAT_ID   = 66515
ELEMENT_SET_NO = 999
REV_AT_EPOCH   = 2131
BSTAR          = .38893019E-3
MEAN_MOTION_DOT = .48483E-3
MEAN_MOTION_DDOT = 0

CCSDS_OMM_VERS = 2.0
CREATION_DATE  = 
ORIGINATOR     = 

OBJECT_NAME    = SHENZHOU-22
OBJECT_ID      = 2025-272A
CENTER_NAME    = EARTH
REF_FRAME      = TEME
TIME_SYSTEM    = UTC
MEAN_ELEMENT_THEORY = SGP/SGP4

EPOCH          = 2026-03-30T10:36:12.170592
MEAN_MOTION    = 15.61695610
ECCENTRICITY   = .00037758
INCLINATION    = 41.4666
RA_OF_ASC_NODE = 81.7909
ARG_OF_PERICENTER = 67.1765
MEAN_ANOMALY   = 292.9473

EPHEMERIS_TYPE = 0
CLASSIFICATION_TYPE = U
NORAD_CAT_ID   = 66645
ELEMENT_SET_NO = 999
REV_AT_EPOCH   = 28083
BSTAR          = .32197763E-3
MEAN_MOTION_DOT = .28355E-3
MEAN_MOTION_DDOT = 0

CCSDS_OMM_VERS = 2.0
CREATION_DATE  = 
ORIGINATOR     = 

OBJECT_NAME    = SOYUZ-MS 28
OBJECT_ID      = 2025-275A
CENTER_NAME    = EARTH
REF_FRAME      = TEME
TIME_SYSTEM    = UTC
MEAN_ELEMENT_THEORY = SGP/SGP4

EPOCH          = 2026-03-30T08:36:35.879904
MEAN_MOTION    = 15.48652900
ECCENTRICITY   = .00062124
INCLINATION    = 51.6343
RA_OF_ASC_NODE = 330.1789
ARG_OF_PERICENTER = 250.3608
MEAN_ANOMALY   = 109.6710

EPHEMERIS_TYPE = 0
CLASSIFICATION_TYPE = U
NORAD_CAT_ID   = 66664
ELEMENT_SET_NO = 999
REV_AT_EPOCH   = 55931
BSTAR          = .22375818E-3
MEAN_MOTION_DOT = .11753E-3
MEAN_MOTION_DDOT = 0

CCSDS_OMM_VERS = 2.0
CREATION_DATE  = 
ORIGINATOR     = 

OBJECT_NAME    = DUPLEX
OBJECT_ID      = 1998-067XS
CENTER_NAME    = EARTH
REF_FRAME      = TEME
TIME_SYSTEM    = UTC
MEAN_ELEMENT_THEORY = SGP/SGP4

EPOCH          = 2026-03-29T22:24:55.678464
MEAN_MOTION    = 15.57577255
ECCENTRICITY   = .00030655
INCLINATION    = 51.6302
RA_OF_ASC_NODE = 328.0933
ARG_OF_PERICENTER = 205.1943
MEAN_ANOMALY   = 154.8900

EPHEMERIS_TYPE = 0
CLASSIFICATION_TYPE = U
NORAD_CAT_ID   = 66906
ELEMENT_SET_NO = 999
REV_AT_EPOCH   = 1828
BSTAR          = .49191105E-3
MEAN_MOTION_DOT = .36667E-3
MEAN_MOTION_DDOT = 0

CCSDS_OMM_VERS = 2.0
CREATION_DATE  = 
ORIGINATOR     = 

OBJECT_NAME    = ISS OBJECT XT
OBJECT_ID      = 1998-067XT
CENTER_NAME    = EARTH
REF_FRAME      = TEME
TIME_SYSTEM    = UTC
MEAN_ELEMENT_THEORY = SGP/SGP4

EPOCH          = 2026-03-30T08:36:14.686848
MEAN_MOTION    = 15.77137224
ECCENTRICITY   = .00062627
INCLINATION    = 51.6238
RA_OF_ASC_NODE = 319.6397
ARG_OF_PERICENTER = 214.5575
MEAN_ANOMALY   = 145.5019

EPHEMERIS_TYPE = 0
CLASSIFICATION_TYPE = U
NORAD_CAT_ID   = 66907
ELEMENT_SET_NO = 999
REV_AT_EPOCH   = 1843
BSTAR          = .15407861E-2
MEAN_MOTION_DOT = .264942E-2
MEAN_MOTION_DDOT = 0

CCSDS_OMM_VERS = 2.0
CREATION_DATE  = 
ORIGINATOR     = 

OBJECT_NAME    = ISS OBJECT XU
OBJECT_ID      = 1998-067XU
CENTER_NAME    = EARTH
REF_FRAME      = TEME
TIME_SYSTEM    = UTC
MEAN_ELEMENT_THEORY = SGP/SGP4

EPOCH          = 2026-03-30T00:54:15.502752
MEAN_MOTION    = 15.77231369
ECCENTRICITY   = .0006488
INCLINATION    = 51.6244
RA_OF_ASC_NODE = 321.2426
ARG_OF_PERICENTER = 211.6504
MEAN_ANOMALY   = 148.4107

EPHEMERIS_TYPE = 0
CLASSIFICATION_TYPE = U
NORAD_CAT_ID   = 66908
ELEMENT_SET_NO = 999
REV_AT_EPOCH   = 1838
BSTAR          = .15861079E-2
MEAN_MOTION_DOT = .274217E-2
MEAN_MOTION_DDOT = 0

CCSDS_OMM_VERS = 2.0
CREATION_DATE  = 
ORIGINATOR     = 

OBJECT_NAME    = SILVERSAT
OBJECT_ID      = 1998-067XV
CENTER_NAME    = EARTH
REF_FRAME      = TEME
TIME_SYSTEM    = UTC
MEAN_ELEMENT_THEORY = SGP/SGP4

EPOCH          = 2026-03-30T14:50:56.153472
MEAN_MOTION    = 15.83247741
ECCENTRICITY   = .00075822
INCLINATION    = 51.6205
RA_OF_ASC_NODE = 316.8575
ARG_OF_PERICENTER = 222.6544
MEAN_ANOMALY   = 137.3871

EPHEMERIS_TYPE = 0
CLASSIFICATION_TYPE = U
NORAD_CAT_ID   = 66909
ELEMENT_SET_NO = 999
REV_AT_EPOCH   = 1849
BSTAR          = .17865404E-2
MEAN_MOTION_DOT = .41376E-2
MEAN_MOTION_DDOT = 0

CCSDS_OMM_VERS = 2.0
CREATION_DATE  = 
ORIGINATOR     = 

OBJECT_NAME    = ISS OBJECT XW
OBJECT_ID      = 1998-067XW
CENTER_NAME    = EARTH
REF_FRAME      = TEME
TIME_SYSTEM    = UTC
MEAN_ELEMENT_THEORY = SGP/SGP4

EPOCH          = 2026-03-30T08:48:36.662400
MEAN_MOTION    = 15.75574408
ECCENTRICITY   = .00066049
INCLINATION    = 51.6226
RA_OF_ASC_NODE = 319.6895
ARG_OF_PERICENTER = 211.3054
MEAN_ANOMALY   = 148.7553

EPHEMERIS_TYPE = 0
CLASSIFICATION_TYPE = U
NORAD_CAT_ID   = 66910
ELEMENT_SET_NO = 999
REV_AT_EPOCH   = 1843
BSTAR          = .14122329E-2
MEAN_MOTION_DOT = .22558E-2
MEAN_MOTION_DDOT = 0

CCSDS_OMM_VERS = 2.0
CREATION_DATE  = 
ORIGINATOR     = 

OBJECT_NAME    = ISS OBJECT XX
OBJECT_ID      = 1998-067XX
CENTER_NAME    = EARTH
REF_FRAME      = TEME
TIME_SYSTEM    = UTC
MEAN_ELEMENT_THEORY = SGP/SGP4

EPOCH          = 2026-03-30T14:46:10.603200
MEAN_MOTION    = 15.90683797
ECCENTRICITY   = .00095903
INCLINATION    = 51.6173
RA_OF_ASC_NODE = 315.2966
ARG_OF_PERICENTER = 227.6877
MEAN_ANOMALY   = 132.3317

EPHEMERIS_TYPE = 0
CLASSIFICATION_TYPE = U
NORAD_CAT_ID   = 66911
ELEMENT_SET_NO = 999
REV_AT_EPOCH   = 1850
BSTAR          = .20123152E-2
MEAN_MOTION_DOT = .638669E-2
MEAN_MOTION_DDOT = .17111548E-3

CCSDS_OMM_VERS = 2.0
CREATION_DATE  = 
ORIGINATOR     = 

OBJECT_NAME    = ISS OBJECT XY
OBJECT_ID      = 1998-067XY
CENTER_NAME    = EARTH
REF_FRAME      = TEME
TIME_SYSTEM    = UTC
MEAN_ELEMENT_THEORY = SGP/SGP4

EPOCH          = 2026-03-30T00:08:30.971328
MEAN_MOTION    = 15.67909669
ECCENTRICITY   = .00045094
INCLINATION    = 51.6265
RA_OF_ASC_NODE = 324.0610
ARG_OF_PERICENTER = 207.7928
MEAN_ANOMALY   = 152.2828

EPHEMERIS_TYPE = 0
CLASSIFICATION_TYPE = U
NORAD_CAT_ID   = 66912
ELEMENT_SET_NO = 999
REV_AT_EPOCH   = 1833
BSTAR          = .11880079E-2
MEAN_MOTION_DOT = .135548E-2
MEAN_MOTION_DDOT = 0

CCSDS_OMM_VERS = 2.0
CREATION_DATE  = 
ORIGINATOR     = 

OBJECT_NAME    = KNACKSAT-2
OBJECT_ID      = 1998-067XZ
CENTER_NAME    = EARTH
REF_FRAME      = TEME
TIME_SYSTEM    = UTC
MEAN_ELEMENT_THEORY = SGP/SGP4

EPOCH          = 2026-03-30T09:18:24.907392
MEAN_MOTION    = 15.53571825
ECCENTRICITY   = .00101244
INCLINATION    = 51.6325
RA_OF_ASC_NODE = 328.8747
ARG_OF_PERICENTER = 261.2248
MEAN_ANOMALY   = 98.7596

EPHEMERIS_TYPE = 0
CLASSIFICATION_TYPE = U
NORAD_CAT_ID   = 67683
ELEMENT_SET_NO = 999
REV_AT_EPOCH   = 800
BSTAR          = .76650335E-3
MEAN_MOTION_DOT = .49653E-3
MEAN_MOTION_DDOT = 0

