HTV-X1                  
1 66174U 25241A   26089.19203903  .00002860  00000+0  10144-3 0  9998
2 66174  51.6383 334.2620 0007237 252.1007 107.9185 15.32482714 24080
SZ-21 MODULE            
1 66515U 25246C   26089.30993578  .00048483  00000+0  38893-3 0  9991
2 66515  41.4738  76.2734 0002020 214.1142 145.9571 15.70166693 21313
SHENZHOU-22             
1 66645U 25272A   26089.44180753  .00028355  00000+0  32198-3 0  9990
2 66645  41.4666  81.7909 0003775  67.1765 292.9473 15.61695610280831
SOYUZ-MS 28             
1 66664U 25275A   26089.35874861  .00011753  00000+0  22376-3 0  9995
2 66664  51.6343 330.1789 0006212 250.3608 109.6710 15.48652900559315
DUPLEX                  
1 66906U 98067XS  26088.93397776  .00036667  00000+0  49191-3 0  9996
2 66906  51.6302 328.0933 0003065 205.1943 154.8900 15.57577255 18287
ISS OBJECT XT           
1 66907U 98067XT  26089.35850332  .00264942  00000+0  15408-2 0  9998
2 66907  51.6238 319.6397 0006262 214.5575 145.5019 15.77137224 18438
ISS OBJECT XU           
1 66908U 98067XU  26089.03767943  .00274217  00000+0  15861-2 0  9998
2 66908  51.6244 321.2426 0006488 211.6504 148.4107 15.77231369 18387
SILVERSAT               
1 66909U 98067XV  26089.61870548  .00413760  00000+0  17865-2 0  9993
2 66909  51.6205 316.8575 0007582 222.6544 137.3871 15.83247741 18497
ISS OBJECT XW           
1 66910U 98067XW  26089.36709100  .00225580  00000+0  14122-2 0  9996
2 66910  51.6226 319.6895 0006604 211.3054 148.7553 15.75574408 18434
ISS OBJECT XX           
1 66911U 98067XX  26089.61540050  .00638669  17112-3  20123-2 0  9992
2 66911  51.6173 315.2966 0009590 227.6877 132.3317 15.90683797 18501
ISS OBJECT XY           
1 66912U 98067XY  26089.00591402  .00135548  00000+0  11880-2 0  9995
2 66912  51.6265 324.0610 0004509 207.7928 152.2828 15.67909669 18331
KNACKSAT-2              
1 67683U 98067XZ  26089.38778828  .00049653  00000+0  76650-3 0  9999
2 67683  51.6325 328.8747 0010124 261.2248  98.7596 15.53571825  8000
